ONEWEB-0045             
1 45151U 20008W   26023.81016331  .00000161  00000+0  41717-3 0  9992
2 45151  87.8832  49.7853 0001824  88.6160 271.5177 13.11417355291489
ONEWEB-0047             
1 45152U 20008X   26023.83343930 -.00000630  00000+0 -18408-2 0  9996
2 45152  87.8764  65.0369 0001845  92.1350 267.9989 13.10366441289295
ONEWEB-0048             
1 45153U 20008Y   26023.52302571 -.00000657  00000+0 -19199-2 0  9996
2 45153  87.8760  65.1264 0001738  98.1989 261.9335 13.10373645288867
ONEWEB-0049             
1 45154U 20008Z   26023.83163423 -.00000695  00000+0 -20260-2 0  9995
2 45154  87.8761  65.0532 0002300  97.8938 262.2450 13.10373132289125
ONEWEB-0051             
1 45155U 20008AA  26023.80846756  .00000156  00000+0  40304-3 0  9992
2 45155  87.8822  49.8007 0001833  92.8936 267.2402 13.11418641292160
ONEWEB-0052             
1 45156U 20008AB  26023.82595895 -.00000639  00000+0 -18659-2 0  9995
2 45156  87.8770  65.0192 0002326  96.8368 263.3024 13.10371310289038
ONEWEB-0053             
1 45157U 20008AC  26023.80855466  .00000098  00000+0  24307-3 0  9992
2 45157  87.8760  65.0656 0001749  85.9413 274.1915 13.10371864289001
ONEWEB-0054             
1 45158U 20008AD  26023.84339013 -.00000238  00000+0 -71900-3 0  9991
2 45158  87.8773  65.0311 0001908  98.1530 261.9814 13.10376891289127
